1998-067XK              
1 65731U 98067XK  26029.99401262  .00227675  00000+0  11816-2 0  9991
2 65731  51.6242 250.2341 0003929 181.0635 179.0358 15.79790369 20739
RSP-03                  
1 65732U 98067XL  26030.01908854  .00452268  88678-4  14273-2 0  9996
2 65732  51.6193 247.3484 0005454 204.6717 155.4029 15.90730226 20785
YOTSUBA-KULOVER         
1 65941U 98067XN  26028.88873711  .00132779  00000+0  11518-2 0  9992
2 65941  51.6262 261.6316 0004440 181.9038 178.1942 15.68173608 17236
BOTAN                   
1 65942U 98067XP  26028.90640339  .00290204  00000+0  16092-2 0  9994
2 65942  51.6209 258.7225 0005472 195.0902 164.9936 15.78139785 17275
E-KAGAKU-1              
1 65943U 98067XQ  26028.88897326  .00132052  00000+0  11487-2 0  9991
2 65943  51.6278 261.6423 0003262 190.6835 169.4092 15.68112897 17239
HRC MONOBLOCK CAMERA    
1 66052U 98067XR  26030.01187899  .00050362  00000+0  65514-3 0  9992
2 66052  51.6287 260.1380 0000297  44.3397 315.7619 15.58259127 16350
HTV-X1                  
1 66174U 25241A   26028.88605451  .00011021  00000+0  21300-3 0  9996
2 66174  51.6319 269.1180 0011179  40.2849 319.8966 15.48254051   517
SZ-21 MODULE            
1 66515U 25246C   26030.13432971  .00039582  00000+0  38274-3 0  9996
2 66515  41.4760  80.1708 0003469 256.2180 103.8275 15.65656752 12026
SHENZHOU-22             
1 66645U 25272A   26028.57199371  .00027953  00000+0  32262-3 0  9998
2 66645  41.4673  91.9689 0009404  23.4558 336.6709 15.61237451267644
SOYUZ-MS 28             
1 66664U 25275A   26030.04787936  .00009583  00000+0  18620-3 0  9998
2 66664  51.6322 263.3755 0011104  44.3027 315.8848 15.48277515550346
DUPLEX                  
1 66906U 98067XS  26029.95842851  .00036265  00000+0  56511-3 0  9990
2 66906  51.6306 262.7795 0001588  77.7808 282.3361 15.53508378  9107
1998-067XT              
1 66907U 98067XT  26030.05246281  .00111088  00000+0  13574-2 0  9997
2 66907  51.6279 261.1573 0003000 153.2105 206.9043 15.59567514  9130
